{
  "type": "Feature",
  "properties": {
    "nombre": "lote_6"
  },
  "geometry": {
    "type": "Polygon",
    "coordinates": [
      [
        [
          -63.741557,
          -31.857535
        ],
        [
          -63.740495,
          -31.856884
        ],
        [
          -63.739288,
          -31.857954
        ],
        [
          -63.740173,
          -31.858647
        ],
        [
          -63.740645,
          -31.858506
        ],
        [
          -63.741557,
          -31.857535
        ]
      ]
    ]
  }
}